STARLINK-1545
1 46156U 20057AR  26061.25002314  .00103786  00000+0  12792-2 0  9995
2 46156  53.0464 294.7155 0002375  65.2310 326.6499 15.59408150  5702
